{
    "links": {
        "self": "http://www.neowsapp.com/rest/v1/neo/3829426?api_key=iIulBulltgU6a56xZRHN4H3l9WmuAYTsLGpBGhQ2"
    },
    "id": "3829426",
    "neo_reference_id": "3829426",
    "name": "(2018 RS5)",
    "designation": "2018 RS5",
    "nasa_jpl_url": "http://ssd.jpl.nasa.gov/sbdb.cgi?sstr=3829426",
    "absolute_magnitude_h": 24.5,
    "estimated_diameter": {
        "kilometers": {
            "estimated_diameter_min": 0.0334622374,
            "estimated_diameter_max": 0.0748238376
        },
        "meters": {
            "estimated_diameter_min": 33.4622374455,
            "estimated_diameter_max": 74.8238376074
        },
        "miles": {
            "estimated_diameter_min": 0.0207924639,
            "estimated_diameter_max": 0.0464933628
        },
        "feet": {
            "estimated_diameter_min": 109.7842471007,
            "estimated_diameter_max": 245.4850393757
        }
    },
    "is_potentially_hazardous_asteroid": false,
    "close_approach_data": [
        {
            "close_approach_date": "2018-09-06",
            "close_approach_date_full": "2018-Sep-06 23:01",
            "epoch_date_close_approach": 1536274860000,
            "relative_velocity": {
                "kilometers_per_second": "16.6972646317",
                "kilometers_per_hour": "60110.1526741578",
                "miles_per_hour": "37350.1112546732"
            },
            "miss_distance": {
                "astronomical": "0.0312008542",
                "lunar": "12.1371322838",
                "kilometers": "4667581.330500554",
                "miles": "2900300.5500494852"
            },
            "orbiting_body": "Earth"
        }
    ],
    "orbital_data": {
        "orbit_id": "6",
        "orbit_determination_date": "2018-09-28 06:30:20",
        "first_observation_date": "2018-09-13",
        "last_observation_date": "2018-09-21",
        "data_arc_in_days": 8,
        "observations_used": 33,
        "orbit_uncertainty": "8",
        "minimum_orbit_intersection": ".0307179",
        "jupiter_tisserand_invariant": "3.492",
        "epoch_osculation": "2458377.5",
        "eccentricity": ".6325823985599623",
        "semi_major_axis": "2.063561651609317",
        "inclination": "5.707449317351549",
        "ascending_node_longitude": "1.886896492836449",
        "orbital_period": "1082.74104287652",
        "perihelion_distance": ".7581888724579378",
        "perihelion_argument": "273.0025290331703",
        "aphelion_distance": "3.368934430760695",
        "perihelion_time": "2458323.736002779009",
        "mean_anomaly": "17.87596316487291",
        "mean_motion": ".3324894741623419",
        "equinox": "J2000",
        "orbit_class": {
            "orbit_class_type": "APO",
            "orbit_class_description": "Near-Earth asteroid orbits which cross the Earth’s orbit similar to that of 1862 Apollo",
            "orbit_class_range": "a (semi-major axis) > 1.0 AU; q (perihelion) < 1.017 AU"
        }
    },
    "is_sentry_object": false
}